<?xml version="1.0" encoding="UTF-8"?>
<kml xmlns="http://www.opengis.net/kml/2.2"><Document><name>Test</name><Folder><name>Parcels</name><Placemark><name>Parcel A</name><description>Square ~1 km x 1 km</description><Polygon><outerBoundaryIs><LinearRing><coordinates>10.0000000,50.0000000,0 10.0139478,50.0000000,0 10.0139478,50.0089904,0 10.0000000,50.0089904,0 10.0000000,50.0000000,0</coordinates></LinearRing></outerBoundaryIs></Polygon></Placemark><Placemark><name>Parcel B</name><description>Square ~500 m</description><Polygon><outerBoundaryIs><LinearRing><coordinates>10.0500000,50.0000000,0 10.0569739,50.0000000,0 10.0569739,50.0044952,0 10.0500000,50.0044952,0 10.0500000,50.0000000,0</coordinates></LinearRing></outerBoundaryIs></Polygon></Placemark></Folder><Folder><name>Roads</name><Placemark><name>Road 1</name><description>~3 km east-west</description><LineString><coordinates>10.0000000,50.0200000,0 10.0418608,50.0200000,0</coordinates></LineString></Placemark><Placemark><name>Road 2</name><description>diagonal</description><LineString><coordinates>10.0000000,50.0300000,0 10.0209348,50.0434856,0</coordinates></LineString></Placemark></Folder><Folder><name>Sites</name><Placemark><name>Site 1</name><description>a point</description><Point><coordinates>10.0100000,50.0100000,0</coordinates></Point></Placemark></Folder></Document></kml>
