<?xml version="1.0" encoding="UTF-8"?>
<kml xmlns="http://www.opengis.net/kml/2.2"><Document><name>Test</name><Placemark><name>Bowtie (invalid)</name><description>self-intersecting</description><Polygon><outerBoundaryIs><LinearRing><coordinates>10.1000000,50.0000000,0 10.1100000,50.0100000,0 10.1100000,50.0000000,0 10.1000000,50.0100000,0 10.1000000,50.0000000,0</coordinates></LinearRing></outerBoundaryIs></Polygon></Placemark><Placemark><name>Valid square</name><description>ok</description><Polygon><outerBoundaryIs><LinearRing><coordinates>10.0000000,50.0000000,0 10.0139478,50.0000000,0 10.0139478,50.0089904,0 10.0000000,50.0089904,0 10.0000000,50.0000000,0</coordinates></LinearRing></outerBoundaryIs></Polygon></Placemark></Document></kml>
