<?xml version="1.0" encoding="UTF-8"?>
<kml xmlns="http://www.opengis.net/kml/2.2"><Document><name>Test</name><Placemark><name>Mixed multigeometry</name><description>polygon+line+point in one placemark</description><MultiGeometry><Polygon><outerBoundaryIs><LinearRing><coordinates>10.0000000,50.0000000,0 10.0139478,50.0000000,0 10.0139478,50.0089904,0 10.0000000,50.0089904,0 10.0000000,50.0000000,0</coordinates></LinearRing></outerBoundaryIs></Polygon><LineString><coordinates>10.0000000,50.0200000,0 10.0418608,50.0200000,0</coordinates></LineString><Point><coordinates>10.0100000,50.0100000,0</coordinates></Point></MultiGeometry></Placemark></Document></kml>
